NORAD_CAT_ID,OBJECT_NAME,OBJECT_TYPE,EPOCH,MEAN_MOTION,ECCENTRICITY,INCLINATION,RA_OF_ASC_NODE,ARG_OF_PERICENTER,MEAN_ANOMALY,BSTAR,MEAN_MOTION_DOT,MEAN_MOTION_DDOT,TLE_LINE0,TLE_LINE1,TLE_LINE2,SEMIMAJOR_AXIS,PERIOD,APOGEE,PERIGEE,DECAYED
51810.0,STARLINK-3613,PAYLOAD,2022-04-13 14:00:03,15.73206776,0.0001547,53.2178,271.249,58.9529,259.023,-3.1768000000000005e-05,-5.077e-05,0.0,0 STARLINK-3613,1 51810U 22017AU  22103.58336806 -.00005077  00000-0 -31768-4 0  9994,2 51810  53.2178 271.2490 0001547  58.9529 259.0230 15.73206776  3719,6727.876,91.533,350.782,348.7,0.0
51810.0,STARLINK-3613,PAYLOAD,2022-04-13 20:00:01,15.7318305,0.0001348,53.2137,270.0343,34.6004,260.233,0.0004283,0.00059875,0.0,0 STARLINK-3613,1 51810U 22017AU  22103.83335648  .00059875  00000-0  42830-3 0  9999,2 51810  53.2137 270.0343 0001348  34.6004 260.2330 15.73183050  8658,6727.943,91.534,350.715,348.902,0.0
51810.0,STARLINK-3613,PAYLOAD,2022-04-13 22:00:00,15.73169644,0.0001324,53.2134,269.622,31.2658,15.7385,0.00078121,0.00110324,0.0,0 STARLINK-3613,1 51810U 22017AU  22103.91667824  .00110324  00000-0  78121-3 0  9991,2 51810  53.2134 269.6220 0001324  31.2658  15.7385 15.73169644  3702,6727.982,91.535,350.73800000000006,348.956,0.0
51810.0,STARLINK-3613,PAYLOAD,2022-04-14 12:00:00,15.73226441,0.0001281999999999,53.2136,266.733,47.2197,65.422,-0.00043553,-0.00061368,0.0,0 STARLINK-3613,1 51810U 22017AU  22104.50001157 -.00061368  00000-0 -43553-3 0  9994,2 51810  53.2136 266.7330 0001282  47.2197  65.4220 15.73226441  8762,6727.82,91.532,350.547,348.82199999999995,0.0
51810.0,STARLINK-3613,PAYLOAD,2022-04-14 14:00:01,15.73239754,0.0001328,53.2136,266.3212,45.5879,179.285,-0.00081369,-0.00113481,0.0,0 STARLINK-3613,1 51810U 22017AU  22104.58334491 -.00113481  00000-0 -81369-3 0  9993,2 51810  53.2136 266.3212 0001328  45.5879 179.2850 15.73239754  3709,6727.781999999997,91.531,350.54,348.75300000000016,0.0
51810.0,STARLINK-3613,PAYLOAD,2022-04-14 20:00:01,15.73171904,0.0001528,53.2138,265.0853,36.8655,164.7484,-1.3903e-05,-2.568e-05,0.0,0 STARLINK-3613,1 51810U 22017AU  22104.83334491 -.00002568  00000-0 -13903-4 0  9994,2 51810  53.2138 265.0853 0001528  36.8655 164.7484 15.73171904  8816,6727.975,91.535,350.86800000000005,348.81199999999984,0.0
51810.0,STARLINK-3613,PAYLOAD,2022-04-14 22:00:00,15.73149366,0.0001517,53.2136,264.6729,34.6372,279.2062,0.00035422,0.00049277,0.0,0 STARLINK-3613,1 51810U 22017AU  22104.91667824  .00049277  00000-0  35422-3 0  9997,2 51810  53.2136 264.6729 0001517  34.6372 279.2062 15.73149366  3705,6728.04,91.536,350.925,348.884,0.0
51810.0,STARLINK-3613,PAYLOAD,2022-04-15 04:00:00,15.73178325,0.0001377,53.214,263.4339,35.6132,254.8986,0.00039574,0.00055234,0.0,0 STARLINK-3613,1 51810U 22017AU  22105.16667824  .00055234  00000-0  39574-3 0  9997,2 51810  53.2140 263.4339 0001377  35.6132 254.8986 15.73178325  8866,6727.956999999999,91.534,350.74800000000016,348.896,0.0
51810.0,STARLINK-3613,PAYLOAD,2022-04-15 12:00:00,15.73258917,0.0001457,53.2142,261.7839,38.1808,341.26800000000014,0.00036672,0.00051292,0.0,0 STARLINK-3613,1 51810U 22017AU  22105.50001157  .00051292  00000-0  36672-3 0  9992,2 51810  53.2142 261.7839 0001457  38.1808 341.2680 15.73258917  8926,6727.727,91.53,350.57199999999995,348.612,0.0
51810.0,STARLINK-3613,PAYLOAD,2022-04-15 14:00:01,15.73293291,0.0001538,53.2141,261.3721,37.0534,94.6399,-0.00010103,-0.00014832,0.0,0 STARLINK-3613,1 51810U 22017AU  22105.58334491 -.00014832  00000-0 -10103-3 0  9992,2 51810  53.2141 261.3721 0001538  37.0534  94.6399 15.73293291  3694,6727.629,91.528,350.529,348.46,0.0
51810.0,STARLINK-3613,PAYLOAD,2022-04-15 20:00:01,15.73269259,0.0001709,53.2141,260.136,34.6664,73.8017,-0.00033765,-0.00047881,0.0,0 STARLINK-3613,1 51810U 22017AU  22105.83334491 -.00047881  00000-0 -33765-3 0  9999,2 51810  53.2141 260.1360 0001709  34.6664  73.8017 15.73269259  8976,6727.698,91.529,350.712,348.413,0.0
51810.0,STARLINK-3613,PAYLOAD,2022-04-15 22:00:00,15.73256449,0.0001710999999999,53.2137,259.7234,34.0894,186.6332,-0.00029655,-0.00042134,0.0,0 STARLINK-3613,1 51810U 22017AU  22105.91667824 -.00042134  00000-0 -29655-3 0  9996,2 51810  53.2137 259.7234 0001711  34.0894 186.6332 15.73256449  3680,6727.734,91.53,350.75,348.4480000000001,0.0
51810.0,STARLINK-3613,PAYLOAD,2022-04-16 04:00:00,15.73245586,0.0001625,53.2138,258.4843,40.9423,156.5186,-0.00096012,-0.00133516,0.0,0 STARLINK-3613,1 51810U 22017AU  22106.16667824 -.00133516  00000-0 -96012-3 0  9990,2 51810  53.2138 258.4843 0001625  40.9423 156.5186 15.73245586  9028,6727.765,91.531,350.723,348.537,0.0
51810.0,STARLINK-3613,PAYLOAD,2022-04-16 14:00:01,15.73104606,0.0001735,53.2141,256.4231,45.1558,353.4398,-0.00066506,-0.00092565,0.0,0 STARLINK-3613,1 51810U 22017AU  22106.58334491 -.00092565  00000-0 -66506-3 0  9990,2 51810  53.2141 256.4231 0001735  45.1558 353.4398 15.73104606  3708,6728.167,91.539,351.199,348.865,0.0
51810.0,STARLINK-3613,PAYLOAD,2022-04-16 20:00:01,15.72990366,0.0001825,53.2143,255.1873,38.1248,337.0733,0.0015914999999999,0.00226831,0.0,0 STARLINK-3613,1 51810U 22017AU  22106.83334491  .00226831  00000-0  15915-2 0  9998,2 51810  53.2143 255.1873 0001825  38.1248 337.0733 15.72990366  9135,6728.493,91.545,351.586,349.13,0.0
51810.0,STARLINK-3613,PAYLOAD,2022-04-16 22:00:01,15.73052088,0.0001779,53.2141,254.7747,35.1881,92.245,0.0011145,0.00157763,0.0,0 STARLINK-3613,1 51810U 22017AU  22106.91668981  .00157763  00000-0  11145-2 0  9999,2 51810  53.2141 254.7747 0001779  35.1881  92.2450 15.73052088  3700,6728.316999999999,91.542,351.379,348.985,0.0
51810.0,STARLINK-3613,PAYLOAD,2022-04-17 04:00:00,15.73133307,0.0001604,53.2146,253.536,34.5783,69.3992,0.00056495,0.00079191,0.0,0 STARLINK-3613,1 51810U 22017AU  22107.16667824  .00079191  00000-0  56495-3 0  9998,2 51810  53.2146 253.5360 0001604  34.5783  69.3992 15.73133307  9182,6728.085,91.537,351.03,348.871,0.0
51810.0,STARLINK-3613,PAYLOAD,2022-04-17 14:00:01,15.73251564,0.0001845,53.2147,251.4749,37.7175,267.3297,7.0534e-05,9.311e-05,0.0,0 STARLINK-3613,1 51810U 22017AU  22107.58334491  .00009311  00000-0  70534-4 0  9993,2 51810  53.2147 251.4749 0001845  37.7175 267.3297 15.73251564  3715,6727.748000000001,91.53,350.85400000000016,348.372,0.0
51810.0,STARLINK-3613,PAYLOAD,2022-04-17 22:00:00,15.73289299,0.0001999,53.2142,249.8259,32.0554,2.03,-0.0005371,-0.0007562,0.0,0 STARLINK-3613,1 51810U 22017AU  22107.91667824 -.00075620  00000-0 -53710-3 0  9993,2 51810  53.2142 249.8259 0001999  32.0554   2.0300 15.73289299  3698,6727.641,91.528,350.85,348.161,0.0
51810.0,STARLINK-3613,PAYLOAD,2022-04-18 04:00:00,15.73219747,0.0001776999999999,53.2145,248.587,35.9195,334.9356,7.6543e-05,0.00010144,0.0,0 STARLINK-3613,1 51810U 22017AU  22108.16667824  .00010144  00000-0  76543-4 0  9999,2 51810  53.2145 248.5870 0001777  35.9195 334.9356 15.73219747  9340,6727.839,91.532,350.899,348.5080000000001,0.0
51810.0,STARLINK-3613,PAYLOAD,2022-04-18 14:00:01,15.73229588,0.0001797,53.2146,246.5261,29.892,182.1684,-0.00011896,-0.00017304,0.0,0 STARLINK-3613,1 51810U 22017AU  22108.58334491 -.00017304  00000-0 -11896-3 0  9992,2 51810  53.2146 246.5261 0001797  29.8920 182.1684 15.73229588  3719,6727.811,91.531,350.885,348.467,0.0
51810.0,STARLINK-3613,PAYLOAD,2022-04-18 22:00:00,15.73195777,0.0001928,53.2145,244.8771,21.7108,279.3018,0.000389,0.00054319,0.0,0 STARLINK-3613,1 51810U 22017AU  22108.91667824  .00054319  00000-0  38900-3 0  9998,2 51810  53.2145 244.8771 0001928  21.7108 279.3018 15.73195777  3701,6727.906999999997,91.533,351.069,348.475,0.0
51810.0,STARLINK-3613,PAYLOAD,2022-04-19 04:00:00,15.73225894,0.0001786999999999,53.215,243.6383,24.9464,252.7585,-0.00019489,-0.00027913,0.0,0 STARLINK-3613,1 51810U 22017AU  22109.16667824 -.00027913  00000-0 -19489-3 0  9999,2 51810  53.2150 243.6383 0001787  24.9464 252.7585 15.73225894  9496,6727.821,91.532,350.889,348.4840000000001,0.0
51810.0,STARLINK-3613,PAYLOAD,2022-04-19 14:00:01,15.73236176,0.0002037,53.2149,241.5775,27.1699,91.7038,-0.00056644,-0.000795,0.0,0 STARLINK-3613,1 51810U 22017AU  22109.58334491 -.00079500  00000-0 -56644-3 0  9999,2 51810  53.2149 241.5775 0002037  27.1699  91.7038 15.73236176  3707,6727.792,91.531,351.027,348.287,0.0
51810.0,STARLINK-3613,PAYLOAD,2022-04-19 20:00:01,15.73165628,0.0002162,53.2146,240.3411,23.6012,72.0013,0.000553,0.00077599,0.0,0 STARLINK-3613,1 51810U 22017AU  22109.83334491  .00077599  00000-0  55300-3 0  9999,2 51810  53.2146 240.3411 0002162  23.6012  72.0013 15.73165628  9600,6727.993,91.535,351.31300000000016,348.404,0.0
51810.0,STARLINK-3613,PAYLOAD,2022-04-20 04:00:00,15.73167736,0.0002003,53.2145,238.6896,25.7627,158.7661,0.00027192,0.00037662,0.0,0 STARLINK-3613,1 51810U 22017AU  22110.16667824  .00037662  00000-0  27192-3 0  9991,2 51810  53.2145 238.6896 0002003  25.7627 158.7661 15.73167736  9653,6727.986999999999,91.535,351.2,348.505,0.0
51810.0,STARLINK-3613,PAYLOAD,2022-04-20 14:00:01,15.73233581,0.0002123,53.2145,236.6293,24.7021,0.9489,-0.00059375,-0.00083259,0.0,0 STARLINK-3613,1 51810U 22017AU  22110.58334491 -.00083259  00000-0 -59375-3 0  9991,2 51810  53.2145 236.6293 0002123  24.7021   0.9489 15.73233581  3700,6727.799,91.531,351.093,348.236,0.0
51810.0,STARLINK-3613,PAYLOAD,2022-04-20 20:00:01,15.73159677,0.0002244,53.2142,235.3929,19.127,343.2439,0.00065708,0.00092462,0.0,0 STARLINK-3613,1 51810U 22017AU  22110.83334491  .00092462  00000-0  65708-3 0  9990,2 51810  53.2142 235.3929 0002244  19.1270 343.2439 15.73159677  9760,6728.01,91.536,351.385,348.365,0.0
51810.0,STARLINK-3613,PAYLOAD,2022-04-20 22:00:00,15.73210655,0.0002199,53.2143,234.9799,18.5351,96.0503,-1.8006e-05,-3.149e-05,0.0,0 STARLINK-3613,1 51810U 22017AU  22110.91667824 -.00003149  00000-0 -18006-4 0  9994,2 51810  53.2143 234.9799 0002199  18.5351  96.0503 15.73210655  3687,6727.865,91.533,351.209,348.25,0.0
